*******************************************************************************
Ephemeris / WWW_USER Mon Jul 15 19:14:17 2024 Pasadena, USA      / Horizons    
*******************************************************************************
Target body name: (2018 VS1)                      {source: JPL#4}
Center body name: Earth (399)                     {source: DE441}
Center-site name: Gemini South Obs., Cerro Pachon
*******************************************************************************
Start time      : A.D. 2018-Oct-07 22:56:00.0000 UT      
Stop  time      : A.D. 2018-Oct-08 10:04:00.0000 UT      
Step-size       : 1 minutes
*******************************************************************************
Target pole/equ : undefined
Target radii    : undefined                                                    
Center geodetic : 289.2634, -30.2406227, 2.71233  {E-lon(deg),Lat(deg),Alt(km)}
Center cylindric: 289.2634,5517.21435,-3194.81213 {E-lon(deg),Dxy(km),Dz(km)}
Center pole/equ : ITRF93                          {East-longitude positive}
Center radii    : 6378.137, 6378.137, 6356.752 km {Equator_a, b, pole_c}       
Target primary  : Sun
Vis. interferer : MOON (R_eq= 1737.400) km        {source: DE441}
Rel. light bend : Sun                             {source: DE441}
Rel. lght bnd GM: 1.3271E+11 km^3/s^2                                          
Small-body perts: Yes                             {source: SB441-N16}
Atmos refraction: NO (AIRLESS)
RA format       : HMS
Time format     : CAL 
Calendar mode   : Mixed Julian/Gregorian
RTS-only print  : NO       
EOP file        : eop.240715.p241008                                           
EOP coverage    : DATA-BASED 1962-JAN-20 TO 2024-JUL-15. PREDICTS-> 2024-OCT-07
Units conversion: 1 au= 149597870.700 km, c= 299792.458 km/s, 1 day= 86400.0 s 
Table cut-offs 1: Elevation (-90.0deg=NO ),Airmass (>38.000=NO), Daylight (YES)
Table cut-offs 2: Solar elongation (  0.0,180.0=NO ),Local Hour Angle( 0.0=NO )
Table cut-offs 3: RA/DEC angular rate (     0.0=NO )                           
*******************************************************************************
Initial IAU76/J2000 heliocentric ecliptic osculating elements (au, days, deg.):
  EPOCH=  2458427.5 ! 2018-Nov-05.00 (TDB)         Residual RMS= .21634        
   EC= .3907275528854954   QR= .7806320880190512   TP= 2458486.1030618688      
   OM= 55.95483604725189   W=  67.17004921097404   IN= 3.601110299269385       
  Equivalent ICRF heliocentric cartesian coordinates (au, au/d):
   X= 7.595935200506908E-01  Y= 6.354459268576240E-01  Z= 2.586666727482118E-01
  VX=-1.643099138746886E-02 VY= 7.530892270769961E-03 VZ= 4.533522122669557E-03
Asteroid physical parameters (km, seconds, rotational period in hours):        
   GM= n.a.                RAD= n.a.               ROTPER= n.a.                
   H= 26.6                 G= .150                 B-V= n.a.                   
                           ALBEDO= n.a.            STYP= n.a.                  
*******************************************************************************
 Date__(UT)__HR:MN     R.A._________(ICRF)_________DEC
******************************************************
$$SOE
 2018-Oct-08 09:11 A   02 41 46.832795 +03 16 32.54250
 2018-Oct-08 09:12 A   02 41 46.846944 +03 16 32.24112
 2018-Oct-08 09:13 A   02 41 46.861123 +03 16 31.93971
 2018-Oct-08 09:14 A   02 41 46.875331 +03 16 31.63826
 2018-Oct-08 09:15 A   02 41 46.889569 +03 16 31.33677
 2018-Oct-08 09:16 A   02 41 46.903837 +03 16 31.03524
 2018-Oct-08 09:17 A   02 41 46.918134 +03 16 30.73367
 2018-Oct-08 09:18 A   02 41 46.932462 +03 16 30.43206
 2018-Oct-08 09:19 A   02 41 46.946819 +03 16 30.13042
 2018-Oct-08 09:20 A   02 41 46.961207 +03 16 29.82873
 2018-Oct-08 09:21 N   02 41 46.975625 +03 16 29.52701
 2018-Oct-08 09:22 N   02 41 46.990074 +03 16 29.22525
 2018-Oct-08 09:23 N   02 41 47.004554 +03 16 28.92346
 2018-Oct-08 09:24 N   02 41 47.019064 +03 16 28.62163
 2018-Oct-08 09:25 N   02 41 47.033605 +03 16 28.31975
 2018-Oct-08 09:26 N   02 41 47.048178 +03 16 28.01785
 2018-Oct-08 09:27 N   02 41 47.062781 +03 16 27.71590
 2018-Oct-08 09:28 N   02 41 47.077416 +03 16 27.41392
 2018-Oct-08 09:29 N   02 41 47.092083 +03 16 27.11190
 2018-Oct-08 09:30 N   02 41 47.106781 +03 16 26.80985
 2018-Oct-08 09:31 N   02 41 47.121511 +03 16 26.50775
 2018-Oct-08 09:32 N   02 41 47.136273 +03 16 26.20563
 2018-Oct-08 09:33 N   02 41 47.151066 +03 16 25.90346
 2018-Oct-08 09:34 N   02 41 47.165892 +03 16 25.60126
 2018-Oct-08 09:35 N   02 41 47.180750 +03 16 25.29902
 2018-Oct-08 09:36 N   02 41 47.195641 +03 16 24.99675
 2018-Oct-08 09:37 N   02 41 47.210564 +03 16 24.69444
 2018-Oct-08 09:38 N   02 41 47.225520 +03 16 24.39210
 2018-Oct-08 09:39 N   02 41 47.240509 +03 16 24.08972
 2018-Oct-08 09:40 N   02 41 47.255530 +03 16 23.78730
 2018-Oct-08 09:41 N   02 41 47.270585 +03 16 23.48485
 2018-Oct-08 09:42 N   02 41 47.285672 +03 16 23.18236
 2018-Oct-08 09:43 N   02 41 47.300793 +03 16 22.87984
 2018-Oct-08 09:44 N   02 41 47.315948 +03 16 22.57729
 2018-Oct-08 09:45 N   02 41 47.331135 +03 16 22.27470
 2018-Oct-08 09:46 N   02 41 47.346357 +03 16 21.97207
 2018-Oct-08 09:47 N   02 41 47.361612 +03 16 21.66941
 2018-Oct-08 09:48 N   02 41 47.376902 +03 16 21.36672
 2018-Oct-08 09:49 C   02 41 47.392225 +03 16 21.06399
 2018-Oct-08 09:50 C   02 41 47.407582 +03 16 20.76123
 2018-Oct-08 09:51 C   02 41 47.422974 +03 16 20.45843
 2018-Oct-08 09:52 C   02 41 47.438400 +03 16 20.15560
 2018-Oct-08 09:53 C   02 41 47.453860 +03 16 19.85274
 2018-Oct-08 09:54 C   02 41 47.469355 +03 16 19.54984
 2018-Oct-08 09:55 C   02 41 47.484885 +03 16 19.24691
 2018-Oct-08 09:56 C   02 41 47.500450 +03 16 18.94395
 2018-Oct-08 09:57 C   02 41 47.516049 +03 16 18.64095
 2018-Oct-08 09:58 C   02 41 47.531684 +03 16 18.33792
 2018-Oct-08 09:59 Cm  02 41 47.547354 +03 16 18.03486
 2018-Oct-08 10:00 Cm  02 41 47.563059 +03 16 17.73176
 2018-Oct-08 10:01 Cm  02 41 47.578800 +03 16 17.42863
 2018-Oct-08 10:02 Cm  02 41 47.594576 +03 16 17.12547
 2018-Oct-08 10:03 Cm  02 41 47.610387 +03 16 16.82228
 2018-Oct-08 10:04 Cm  02 41 47.626235 +03 16 16.51906
